{"type": "FeatureCollection", "features": [ {"type": "Feature", "properties": {"norad_id": 67081, "name": "STARLINK-35864", "group": "last-30-days", "lat": 52.04414280860926, "lon": -122.32945220143075, "alt_km": 342.1769576271381, "timestamp": "2025-12-26T20:30:44.703361+00:00", "meta": {"OBJECT_NAME": "STARLINK-35864", "OBJECT_ID": "2025-298G", "EPOCH": "2025-12-26T14:00:04.000032", "MEAN_MOTION": 15.75711986, "ECCENTRICITY": 0.00038769, "INCLINATION": 69.9984, "RA_OF_ASC_NODE": 210.6003, "ARG_OF_PERICENTER": 267.7027, "MEAN_ANOMALY": 51.369, "EPHEMERIS_TYPE": 0, "CLASSIFICATION_TYPE": "U", "NORAD_CAT_ID": 67081, "ELEMENT_SET_NO": 999, "REV_AT_EPOCH": 320, "BSTAR": -0.012603277, "MEAN_MOTION_DOT": -0.01714448, "MEAN_MOTION_DDOT": 0}, "tle": {"line1": "1 67081U 25298G   25360.58337963 -.01714448  00000+0 -12603-1 0  9991", "line2": "2 67081  69.9984 210.6003 0003876 267.7027  51.3690 15.75711986  3205"}}, "geometry": {"type": "Point", "coordinates": [-122.32945220143075, 52.04414280860926]}}, {"type": "Feature", "properties": {"norad_id": 67082, "name": "STARLINK-36035", "group": "last-30-days", "lat": 53.72120217597974, "lon": -120.41664824510352, "alt_km": 341.9746486258591, "timestamp": "2025-12-26T20:30:44.703370+00:00", "meta": {"OBJECT_NAME": "STARLINK-36035", "OBJECT_ID": "2025-298H", "EPOCH": "2025-12-26T14:00:04.000032", "MEAN_MOTION": 15.75706556, "ECCENTRICITY": 0.0003807, "INCLINATION": 69.9985, "RA_OF_ASC_NODE": 210.598, "ARG_OF_PERICENTER": 267.7946, "MEAN_ANOMALY": 53.3185, "EPHEMERIS_TYPE": 0, "CLASSIFICATION_TYPE": "U", "NORAD_CAT_ID": 67082, "ELEMENT_SET_NO": 999, "REV_AT_EPOCH": 320, "BSTAR": -0.012640126, "MEAN_MOTION_DOT": -0.01718444, "MEAN_MOTION_DDOT": 0}, "tle": {"line1": "1 67082U 25298H   25360.58337963 -.01718444  00000+0 -12640-1 0  9993", "line2": "2 67082  69.9985 210.5980 0003807 267.7946  53.3185 15.75706556  3202"}}, "geometry": {"type": "Point", "coordinates": [-120.41664824510352, 53.72120217597974]}}, {"type": "Feature", "properties": {"norad_id": 67083, "name": "STARLINK-36170", "group": "last-30-days", "lat": 55.387474089966354, "lon": -118.31712417541466, "alt_km": 341.80463284890357, "timestamp": "2025-12-26T20:30:44.703379+00:00", "meta": {"OBJECT_NAME": "STARLINK-36170", "OBJECT_ID": "2025-298J", "EPOCH": "2025-12-26T14:00:04.000032", "MEAN_MOTION": 15.75699037, "ECCENTRICITY": 0.00037261, "INCLINATION": 69.9985, "RA_OF_ASC_NODE": 210.5952, "ARG_OF_PERICENTER": 265.9841, "MEAN_ANOMALY": 57.2004, "EPHEMERIS_TYPE": 0, "CLASSIFICATION_TYPE": "U", "NORAD_CAT_ID": 67083, "ELEMENT_SET_NO": 999, "REV_AT_EPOCH": 320, "BSTAR": -0.012646087, "MEAN_MOTION_DOT": -0.01718577, "MEAN_MOTION_DDOT": 0}, "tle": {"line1": "1 67083U 25298J   25360.58337963 -.01718577  00000+0 -12646-1 0  9997", "line2": "2 67083  69.9985 210.5952 0003726 265.9841  57.2004 15.75699037  3204"}}, "geometry": {"type": "Point", "coordinates": [-118.31712417541466, 55.387474089966354]}}, {"type": "Feature", "properties": {"norad_id": 67084, "name": "STARLINK-36166", "group": "last-30-days", "lat": 56.95230283340491, "lon": -116.12607773029582, "alt_km": 341.64106285789967, "timestamp": "2025-12-26T20:30:44.703391+00:00", "meta": {"OBJECT_NAME": "STARLINK-36166", "OBJECT_ID": "2025-298K", "EPOCH": "2025-12-26T14:00:04.000032", "MEAN_MOTION": 15.75697376, "ECCENTRICITY": 0.00037645, "INCLINATION": 69.998, "RA_OF_ASC_NODE": 210.5924, "ARG_OF_PERICENTER": 267.6788, "MEAN_ANOMALY": 57.4889, "EPHEMERIS_TYPE": 0, "CLASSIFICATION_TYPE": "U", "NORAD_CAT_ID": 67084, "ELEMENT_SET_NO": 999, "REV_AT_EPOCH": 314, "BSTAR": -0.012652649, "MEAN_MOTION_DOT": -0.01719292, "MEAN_MOTION_DDOT": 0}, "tle": {"line1": "1 67084U 25298K   25360.58337963 -.01719292  00000+0 -12653-1 0  9991", "line2": "2 67084  69.9980 210.5924 0003764 267.6788  57.4889 15.75697376  3140"}}, "geometry": {"type": "Point", "coordinates": [-116.12607773029582, 56.95230283340491]}}, {"type": "Feature", "properties": {"norad_id": 67085, "name": "STARLINK-35794", "group": "last-30-days", "lat": 58.459248280092744, "lon": -113.77293818032284, "alt_km": 341.57909237578406, "timestamp": "2025-12-26T20:30:44.703401+00:00", "meta": {"OBJECT_NAME": "STARLINK-35794", "OBJECT_ID": "2025-298L", "EPOCH": "2025-12-26T14:00:04.000032", "MEAN_MOTION": 15.75693193, "ECCENTRICITY": 0.00038545, "INCLINATION": 69.9983, "RA_OF_ASC_NODE": 210.5906, "ARG_OF_PERICENTER": 266.273, "MEAN_ANOMALY": 60.8595, "EPHEMERIS_TYPE": 0, "CLASSIFICATION_TYPE": "U", "NORAD_CAT_ID": 67085, "ELEMENT_SET_NO": 999, "REV_AT_EPOCH": 320, "BSTAR": -0.012637488, "MEAN_MOTION_DOT": -0.0171728, "MEAN_MOTION_DDOT": 0}, "tle": {"line1": "1 67085U 25298L   25360.58337963 -.01717280  00000+0 -12637-1 0  9999", "line2": "2 67085  69.9983 210.5906 0003854 266.2730  60.8595 15.75693193  3208"}}, "geometry": {"type": "Point", "coordinates": [-113.77293818032284, 58.459248280092744]}}, {"type": "Feature", "properties": {"norad_id": 67086, "name": "STARLINK-35841", "group": "last-30-days", "lat": 60.041144650964256, "lon": -110.98411647653668, "alt_km": 341.35618369583335, "timestamp": "2025-12-26T20:30:44.703410+00:00", "meta": {"OBJECT_NAME": "STARLINK-35841", "OBJECT_ID": "2025-298M", "EPOCH": "2025-12-26T14:00:04.000032", "MEAN_MOTION": 15.75682199, "ECCENTRICITY": 0.0003748, "INCLINATION": 69.9982, "RA_OF_ASC_NODE": 210.5875, "ARG_OF_PERICENTER": 267.9921, "MEAN_ANOMALY": 61.2774, "EPHEMERIS_TYPE": 0, "CLASSIFICATION_TYPE": "U", "NORAD_CAT_ID": 67086, "ELEMENT_SET_NO": 999, "REV_AT_EPOCH": 320, "BSTAR": -0.012617714, "MEAN_MOTION_DOT": -0.01714064, "MEAN_MOTION_DDOT": 0}, "tle": {"line1": "1 67086U 25298M   25360.58337963 -.01714064  00000+0 -12618-1 0  9996", "line2": "2 67086  69.9982 210.5875 0003748 267.9921  61.2774 15.75682199  3203"}}, "geometry": {"type": "Point", "coordinates": [-110.98411647653668, 60.041144650964256]}}, {"type": "Feature", "properties": {"norad_id": 67087, "name": "STARLINK-35842", "group": "last-30-days", "lat": 44.99356565417718, "lon": -128.8021590994797, "alt_km": 354.88970470499225, "timestamp": "2025-12-26T20:30:44.703419+00:00", "meta": {"OBJECT_NAME": "STARLINK-35842", "OBJECT_ID": "2025-298N", "EPOCH": "2025-12-26T14:00:04.000032", "MEAN_MOTION": 15.71972643, "ECCENTRICITY": 0.00037653, "INCLINATION": 69.9992, "RA_OF_ASC_NODE": 210.6052, "ARG_OF_PERICENTER": 264.4903, "MEAN_ANOMALY": 50.2178, "EPHEMERIS_TYPE": 0, "CLASSIFICATION_TYPE": "U", "NORAD_CAT_ID": 67087, "ELEMENT_SET_NO": 999, "REV_AT_EPOCH": 320, "BSTAR": -0.021459561, "MEAN_MOTION_DOT": -0.02414784, "MEAN_MOTION_DDOT": 0}, "tle": {"line1": "1 67087U 25298N   25360.58337963 -.02414784  00000+0 -21460-1 0  9999", "line2": "2 67087  69.9992 210.6052 0003765 264.4903  50.2178 15.71972643  3202"}}, "geometry": {"type": "Point", "coordinates": [-128.8021590994797, 44.99356565417718]}}, {"type": "Feature", "properties": {"norad_id": 67088, "name": "STARLINK-35882", "group": "last-30-days", "lat": 62.777123684667444, "lon": -105.10484946454282, "alt_km": 341.1389042287137, "timestamp": "2025-12-26T20:30:44.703427+00:00", "meta": {"OBJECT_NAME": "STARLINK-35882", "OBJECT_ID": "2025-298P", "EPOCH": "2025-12-26T14:00:04.000032", "MEAN_MOTION": 15.75679531, "ECCENTRICITY": 0.00037811, "INCLINATION": 69.9984, "RA_OF_ASC_NODE": 210.5835, "ARG_OF_PERICENTER": 268.0728, "MEAN_ANOMALY": 65.1189, "EPHEMERIS_TYPE": 0, "CLASSIFICATION_TYPE": "U", "NORAD_CAT_ID": 67088, "ELEMENT_SET_NO": 999, "REV_AT_EPOCH": 320, "BSTAR": -0.012646246, "MEAN_MOTION_DOT": -0.01717344, "MEAN_MOTION_DDOT": 0}, "tle": {"line1": "1 67088U 25298P   25360.58337963 -.01717344  00000+0 -12646-1 0  9993", "line2": "2 67088  69.9984 210.5835 0003781 268.0728  65.1189 15.75679531  3206"}}, "geometry": {"type": "Point", "coordinates": [-105.10484946454282, 62.777123684667444]}}, {"type": "Feature", "properties": {"norad_id": 67089, "name": "STARLINK-35763", "group": "last-30-days", "lat": 64.13194894869827, "lon": -101.48839131169414, "alt_km": 341.047861936494, "timestamp": "2025-12-26T20:30:44.703436+00:00", "meta": {"OBJECT_NAME": "STARLINK-35763", "OBJECT_ID": "2025-298Q", "EPOCH": "2025-12-26T14:00:04.000032", "MEAN_MOTION": 15.75669376, "ECCENTRICITY": 0.0003784, "INCLINATION": 69.998, "RA_OF_ASC_NODE": 210.5801, "ARG_OF_PERICENTER": 267.9626, "MEAN_ANOMALY": 67.3453, "EPHEMERIS_TYPE": 0, "CLASSIFICATION_TYPE": "U", "NORAD_CAT_ID": 67089, "ELEMENT_SET_NO": 999, "REV_AT_EPOCH": 320, "BSTAR": -0.012625704, "MEAN_MOTION_DOT": -0.01714202, "MEAN_MOTION_DDOT": 0}, "tle": {"line1": "1 67089U 25298Q   25360.58337963 -.01714202  00000+0 -12626-1 0  9992", "line2": "2 67089  69.9980 210.5801 0003784 267.9626  67.3453 15.75669376  3208"}}, "geometry": {"type": "Point", "coordinates": [-101.48839131169414, 64.13194894869827]}}, {"type": "Feature", "properties": {"norad_id": 67090, "name": "STARLINK-36060", "group": "last-30-days", "lat": 65.25834723392956, "lon": -97.96707453960745, "alt_km": 341.00678655435786, "timestamp": "2025-12-26T20:30:44.703446+00:00", "meta": {"OBJECT_NAME": "STARLINK-36060", "OBJECT_ID": "2025-298R", "EPOCH": "2025-12-26T14:00:04.000032", "MEAN_MOTION": 15.75675824, "ECCENTRICITY": 0.00039567, "INCLINATION": 69.9997, "RA_OF_ASC_NODE": 210.5778, "ARG_OF_PERICENTER": 271.8436, "MEAN_ANOMALY": 65.333, "EPHEMERIS_TYPE": 0, "CLASSIFICATION_TYPE": "U", "NORAD_CAT_ID": 67090, "ELEMENT_SET_NO": 999, "REV_AT_EPOCH": 314, "BSTAR": -0.012627063, "MEAN_MOTION_DOT": -0.01714965, "MEAN_MOTION_DDOT": 0}, "tle": {"line1": "1 67090U 25298R   25360.58337963 -.01714965  00000+0 -12627-1 0  9991", "line2": "2 67090  69.9997 210.5778 0003956 271.8436  65.3330 15.75675824  3145"}}, "geometry": {"type": "Point", "coordinates": [-97.96707453960745, 65.25834723392956]}}]}